{
  "type": "FeatureCollection",
  "features": [
    {
      "type": "Feature",
      "properties": {
        "norad_id": 38001,
        "name": "COSMOS 2251 DEB",
        "group": "cosmos-2251-debris",
        "lat": 61.77144619552259,
        "lon": -82.03781807891298,
        "alt_km": 670.3111216863208,
        "timestamp": "2025-12-13T18:50:04.828585+00:00",
        "meta_object_name": "COSMOS 2251 DEB",
        "meta_object_id": "1993-036BRC",
        "meta_epoch": "2025-12-12T20:16:35.165280",
        "meta_mean_motion": 14.79078189,
        "meta_eccentricity": 0.00654432,
        "meta_inclination": 74.0015,
        "meta_ra_of_asc_node": 132.1204,
        "meta_arg_of_pericenter": 281.6012,
        "meta_mean_anomaly": 229.3519,
        "meta_ephemeris_type": 0,
        "meta_classification_type": "U",
        "meta_norad_cat_id": 38001,
        "meta_element_set_no": 999,
        "meta_rev_at_epoch": 74709,
        "meta_bstar": 0.0011942627,
        "meta_mean_motion_dot": 9.141e-05,
        "meta_mean_motion_ddot": 0,
        "tle_line1": "1 38001U 93036BRC 25346.84485145  .00009141  00000+0  11943-2 0  9996",
        "tle_line2": "2 38001  74.0015 132.1204 0065443 281.6012 229.3519 14.79078189747098"
      },
      "geometry": {
        "type": "Point",
        "coordinates": [
          -82.03781807891298,
          61.77144619552259
        ]
      }
    },
    {
      "type": "Feature",
      "properties": {
        "norad_id": 38006,
        "name": "COSMOS 2251 DEB",
        "group": "cosmos-2251-debris",
        "lat": -9.659977342493029,
        "lon": -141.08919257256542,
        "alt_km": 789.546310100327,
        "timestamp": "2025-12-13T18:50:04.828596+00:00",
        "meta_object_name": "COSMOS 2251 DEB",
        "meta_object_id": "1993-036BRH",
        "meta_epoch": "2025-12-10T03:36:37.956384",
        "meta_mean_motion": 14.45867865,
        "meta_eccentricity": 0.00758537,
        "meta_inclination": 73.8744,
        "meta_ra_of_asc_node": 42.933,
        "meta_arg_of_pericenter": 348.3853,
        "meta_mean_anomaly": 11.555,
        "meta_ephemeris_type": 0,
        "meta_classification_type": "U",
        "meta_norad_cat_id": 38006,
        "meta_element_set_no": 999,
        "meta_rev_at_epoch": 62922,
        "meta_bstar": 0.0047338847,
        "meta_mean_motion_dot": 0.00017443,
        "meta_mean_motion_ddot": 0,
        "tle_line1": "1 38006U 93036BRH 25344.15043931  .00017443  00000+0  47339-2 0  9998",
        "tle_line2": "2 38006  73.8744  42.9330 0075853 348.3853  11.5550 14.45867865629227"
      },
      "geometry": {
        "type": "Point",
        "coordinates": [
          -141.08919257256542,
          -9.659977342493029
        ]
      }
    },
    {
      "type": "Feature",
      "properties": {
        "norad_id": 38054,
        "name": "COSMOS 2251 DEB",
        "group": "cosmos-2251-debris",
        "lat": -2.830183170596496,
        "lon": -96.72368691318782,
        "alt_km": 1135.4860761014252,
        "timestamp": "2025-12-13T18:50:04.828606+00:00",
        "meta_object_name": "COSMOS 2251 DEB",
        "meta_object_id": "1993-036BRL",
        "meta_epoch": "2025-12-06T19:35:06.065952",
        "meta_mean_motion": 13.62293123,
        "meta_eccentricity": 0.0360398,
        "meta_inclination": 73.9587,
        "meta_ra_of_asc_node": 275.4844,
        "meta_arg_of_pericenter": 254.7432,
        "meta_mean_anomaly": 133.9151,
        "meta_ephemeris_type": 0,
        "meta_classification_type": "U",
        "meta_norad_cat_id": 38054,
        "meta_element_set_no": 999,
        "meta_rev_at_epoch": 67099,
        "meta_bstar": 0.0049752628,
        "meta_mean_motion_dot": 5.934e-05,
        "meta_mean_motion_ddot": 0,
        "tle_line1": "1 38054U 93036BRL 25340.81604243  .00005934  00000+0  49753-2 0  9993",
        "tle_line2": "2 38054  73.9587 275.4844 0360398 254.7432 133.9151 13.62293123670997"
      },
      "geometry": {
        "type": "Point",
        "coordinates": [
          -96.72368691318782,
          -2.830183170596496
        ]
      }
    },
    {
      "type": "Feature",
      "properties": {
        "norad_id": 38055,
        "name": "COSMOS 2251 DEB",
        "group": "cosmos-2251-debris",
        "lat": -3.555311210097387,
        "lon": -156.31427319195083,
        "alt_km": 599.8567028718835,
        "timestamp": "2025-12-13T18:50:04.828617+00:00",
        "meta_object_name": "COSMOS 2251 DEB",
        "meta_object_id": "1993-036BRM",
        "meta_epoch": "2025-12-11T09:07:57.721152",
        "meta_mean_motion": 14.76955256,
        "meta_eccentricity": 0.00657701,
        "meta_inclination": 74.0089,
        "meta_ra_of_asc_node": 209.4259,
        "meta_arg_of_pericenter": 337.2903,
        "meta_mean_anomaly": 200.444,
        "meta_ephemeris_type": 0,
        "meta_classification_type": "U",
        "meta_norad_cat_id": 38055,
        "meta_element_set_no": 999,
        "meta_rev_at_epoch": 60662,
        "meta_bstar": 0.0014257024,
        "meta_mean_motion_dot": 0.00010385,
        "meta_mean_motion_ddot": 0,
        "tle_line1": "1 38055U 93036BRM 25345.38052918  .00010385  00000+0  14257-2 0  9994",
        "tle_line2": "2 38055  74.0089 209.4259 0065770 337.2903 200.4440 14.76955256606628"
      },
      "geometry": {
        "type": "Point",
        "coordinates": [
          -156.31427319195083,
          -3.555311210097387
        ]
      }
    },
    {
      "type": "Feature",
      "properties": {
        "norad_id": 38060,
        "name": "COSMOS 2251 DEB",
        "group": "cosmos-2251-debris",
        "lat": 7.474259564011518,
        "lon": 111.15183832338208,
        "alt_km": 710.1507214968724,
        "timestamp": "2025-12-13T18:50:04.828627+00:00",
        "meta_object_name": "COSMOS 2251 DEB",
        "meta_object_id": "1993-036BRS",
        "meta_epoch": "2025-12-11T05:22:06.825504",
        "meta_mean_motion": 14.63841303,
        "meta_eccentricity": 0.00580419,
        "meta_inclination": 74.0431,
        "meta_ra_of_asc_node": 298.2163,
        "meta_arg_of_pericenter": 44.676,
        "meta_mean_anomaly": 315.9062,
        "meta_ephemeris_type": 0,
        "meta_classification_type": "U",
        "meta_norad_cat_id": 38060,
        "meta_element_set_no": 999,
        "meta_rev_at_epoch": 71942,
        "meta_bstar": 0.00092465515,
        "meta_mean_motion_dot": 4.921e-05,
        "meta_mean_motion_ddot": 0,
        "tle_line1": "1 38060U 93036BRS 25345.22369011  .00004921  00000+0  92466-3 0  9996",
        "tle_line2": "2 38060  74.0431 298.2163 0058041  44.6760 315.9062 14.63841303719426"
      },
      "geometry": {
        "type": "Point",
        "coordinates": [
          111.15183832338208,
          7.474259564011518
        ]
      }
    },
    {
      "type": "Feature",
      "properties": {
        "norad_id": 38062,
        "name": "COSMOS 2251 DEB",
        "group": "cosmos-2251-debris",
        "lat": -69.1357297180391,
        "lon": 157.16241414723868,
        "alt_km": 597.6679103738434,
        "timestamp": "2025-12-13T18:50:04.828638+00:00",
        "meta_object_name": "COSMOS 2251 DEB",
        "meta_object_id": "1993-036BRU",
        "meta_epoch": "2025-12-12T07:01:37.512192",
        "meta_mean_motion": 14.94806818,
        "meta_eccentricity": 0.00123829,
        "meta_inclination": 74.0077,
        "meta_ra_of_asc_node": 291.3712,
        "meta_arg_of_pericenter": 60.6656,
        "meta_mean_anomaly": 90.0551,
        "meta_ephemeris_type": 0,
        "meta_classification_type": "U",
        "meta_norad_cat_id": 38062,
        "meta_element_set_no": 999,
        "meta_rev_at_epoch": 63023,
        "meta_bstar": 0.0035861639,
        "meta_mean_motion_dot": 0.00039272,
        "meta_mean_motion_ddot": 0,
        "tle_line1": "1 38062U 93036BRU 25346.29279528  .00039272  00000+0  35862-2 0  9992",
        "tle_line2": "2 38062  74.0077 291.3712 0012382  60.6656  90.0551 14.94806818630239"
      },
      "geometry": {
        "type": "Point",
        "coordinates": [
          157.16241414723868,
          -69.1357297180391
        ]
      }
    },
    {
      "type": "Feature",
      "properties": {
        "norad_id": 38064,
        "name": "COSMOS 2251 DEB",
        "group": "cosmos-2251-debris",
        "lat": 28.93697904971891,
        "lon": 131.26775012417338,
        "alt_km": 732.0732747982911,
        "timestamp": "2025-12-13T18:50:04.828648+00:00",
        "meta_object_name": "COSMOS 2251 DEB",
        "meta_object_id": "1993-036BRW",
        "meta_epoch": "2025-12-12T19:36:50.295456",
        "meta_mean_motion": 14.56302791,
        "meta_eccentricity": 0.00474226,
        "meta_inclination": 74.0219,
        "meta_ra_of_asc_node": 123.9894,
        "meta_arg_of_pericenter": 243.5884,
        "meta_mean_anomaly": 116.0408,
        "meta_ephemeris_type": 0,
        "meta_classification_type": "U",
        "meta_norad_cat_id": 38064,
        "meta_element_set_no": 999,
        "meta_rev_at_epoch": 71866,
        "meta_bstar": 0.0015473563,
        "meta_mean_motion_dot": 6.935e-05,
        "meta_mean_motion_ddot": 0,
        "tle_line1": "1 38064U 93036BRW 25346.81724879  .00006935  00000+0  15474-2 0  9993",
        "tle_line2": "2 38064  74.0219 123.9894 0047422 243.5884 116.0408 14.56302791718661"
      },
      "geometry": {
        "type": "Point",
        "coordinates": [
          131.26775012417338,
          28.93697904971891
        ]
      }
    }
  ]
}